GLOBALSTAR M067 [+]     
1 32263U 07048A   24017.43788264 -.00000052  00000+0  33644-3 0  9991
2 32263  51.9729 107.9367 0000188  22.4127  58.5174 12.40637363745347
GLOBALSTAR M070 [+]     
1 32264U 07048B   24017.10111764 -.00000069  00000+0  19173-3 0  9990
2 32264  51.9742 263.7146 0001231  57.3991 107.1766 12.62284922748361
GLOBALSTAR M066 [+]     
1 32265U 07048C   24017.59964090 -.00000062  00000+0  23143-3 0  9997
2 32265  51.9672 124.2132 0001431 152.3649 309.5952 12.62279752750697
GLOBALSTAR M068 [-]     
1 32266U 07048D   24017.46645720 -.00000075  00000+0  15892-3 0  9996
2 32266  51.9891  77.3303 0001272 102.3510   2.0419 12.62776388752270
GLOBALSTAR M079 [+]     
1 37188U 10054A   24017.03574062 -.00000081  00000+0  12628-3 0  9999
2 37188  52.0040 274.0803 0000600  63.9848  40.8252 12.62265734611140
GLOBALSTAR M076 [+]     
1 37190U 10054C   24017.00945396 -.00000078  00000+0  14173-3 0  9994
2 37190  52.0030 273.6907 0000750  20.7882  82.1865 12.62257806611462
GLOBALSTAR M077 [+]     
1 37191U 10054D   24017.00594229 -.00000095  00000+0  51279-4 0  9998
2 37191  52.0046 230.4066 0001087  74.8369  72.7766 12.62268812611836
